NORAD_CAT_ID,OBJECT_NAME,OBJECT_TYPE,EPOCH,MEAN_MOTION,ECCENTRICITY,INCLINATION,RA_OF_ASC_NODE,ARG_OF_PERICENTER,MEAN_ANOMALY,BSTAR,MEAN_MOTION_DOT,MEAN_MOTION_DDOT,TLE_LINE0,TLE_LINE1,TLE_LINE2,SEMIMAJOR_AXIS,PERIOD,APOGEE,PERIGEE,DECAYED
53567.0,STARLINK-4585,PAYLOAD,2023-04-06 21:35:12,15.08844699,0.0001346,53.2156,167.7253,92.4828,267.6318,0.00034975,5.283e-05,0.0,0 STARLINK-4585,1 53567U 22101AS  23096.89944710  .00005283  00000-0  34975-3 0  9993,2 53567  53.2156 167.7253 0001346  92.4828 267.6318 15.08844699 35249,6917.866,95.437,540.662,538.8,0.0
53567.0,STARLINK-4585,PAYLOAD,2023-04-07 05:32:07,15.0884062,0.0001397,53.2162,166.2381,96.3157,263.7994,0.00013769,1.904e-05,0.0,0 STARLINK-4585,1 53567U 22101AS  23097.23064781  .00001904  00000-0  13769-3 0  9997,2 53567  53.2162 166.2381 0001397  96.3157 263.7994 15.08840620 35298,6917.878,95.438,540.71,538.777,0.0
53567.0,STARLINK-4585,PAYLOAD,2023-04-07 11:53:40,15.08845103,0.0001444,53.2171,165.0492,99.0136,261.102,0.00023125,3.395e-05,0.0,0 STARLINK-4585,1 53567U 22101AS  23097.49560643  .00003395  00000-0  23125-3 0  9996,2 53567  53.2171 165.0492 0001444  99.0136 261.1020 15.08845103 35336,6917.865,95.437,540.729,538.731,0.0
53567.0,STARLINK-4585,PAYLOAD,2023-04-08 11:44:27,15.0884652,0.0001496,53.2167,160.5887,87.2187,272.8976,0.00017057,2.428e-05,0.0,0 STARLINK-4585,1 53567U 22101AS  23098.48920500  .00002428  00000-0  17057-3 0  9991,2 53567  53.2167 160.5887 0001496  87.2187 272.8976 15.08846520 35480,6917.86,95.437,540.76,538.691,0.0
53567.0,STARLINK-4585,PAYLOAD,2023-04-09 03:38:18,15.08842669,0.0001531,53.2169,157.6154,84.9083,275.2084,9.4482e-05,1.216e-05,0.0,0 STARLINK-4585,1 53567U 22101AS  23099.15160600  .00001216  00000-0  94482-4 0  9995,2 53567  53.2169 157.6154 0001531  84.9083 275.2084 15.08842669 35583,6917.872,95.437,540.796,538.678,0.0
53567.0,STARLINK-4585,PAYLOAD,2023-04-09 09:59:51,15.08843401,0.0001529,53.2171,156.4255,82.7152,277.4014,5.7027e-05,6.2e-06,0.0,0 STARLINK-4585,1 53567U 22101AS  23099.41656589  .00000620  00000-0  57027-4 0  9992,2 53567  53.2171 156.4255 0001529  82.7152 277.4014 15.08843401 35622,6917.87,95.437,540.793,538.677,0.0
53567.0,STARLINK-4585,PAYLOAD,2023-04-10 03:29:06,15.0883915,0.0001607,53.217,153.1549,82.1612,277.9562,4.7677e-05,4.71e-06,0.0,0 STARLINK-4585,1 53567U 22101AS  23100.14520927  .00000471  00000-0  47677-4 0  9995,2 53567  53.2170 153.1549 0001607  82.1612 277.9562 15.08839150 35734,6917.883,95.438,540.86,538.636,0.0
53567.0,STARLINK-4585,PAYLOAD,2023-04-10 08:15:15,15.08838418,0.0001599,53.217,152.2627,82.2626,277.8548,4.0446e-05,3.56e-06,0.0,0 STARLINK-4585,1 53567U 22101AS  23100.34393001  .00000356  00000-0  40446-4 0  9997,2 53567  53.2170 152.2627 0001599  82.2626 277.8548 15.08838418 35769,6917.885,95.438,540.856,538.644,0.0
53567.0,STARLINK-4585,PAYLOAD,2023-04-10 20:58:20,15.08843827,0.0001542,53.2173,149.8836,77.8931,282.2234,9.1579e-05,1.17e-05,0.0,0 STARLINK-4585,1 53567U 22101AS  23100.87384645  .00001170  00000-0  91579-4 0  9997,2 53567  53.2173 149.8836 0001542  77.8931 282.2234 15.08843827 35844,6917.869,95.437,540.8,538.667,0.0
53567.0,STARLINK-4585,PAYLOAD,2023-04-11 09:41:25,15.08845855,0.0001458,53.2162,147.5044,78.1282,281.9873,0.00014357,1.998e-05,0.0,0 STARLINK-4585,1 53567U 22101AS  23101.40376306  .00001998  00000-0  14357-3 0  9998,2 53567  53.2162 147.5044 0001458  78.1282 281.9873 15.08845855 35924,6917.862,95.437,540.736,538.719,0.0
53567.0,STARLINK-4585,PAYLOAD,2023-04-12 12:42:59,15.08837197,0.0001382,53.2163,142.4484,81.8011,278.3137,4.6938e-05,4.59e-06,0.0,0 STARLINK-4585,1 53567U 22101AS  23102.52985028  .00000459  00000-0  46938-4 0  9991,2 53567  53.2163 142.4484 0001382  81.8011 278.3137 15.08837197 36096,6917.889,95.438,540.71,538.798,0.0
53567.0,STARLINK-4585,PAYLOAD,2023-04-13 07:47:36,15.08837839,0.0001317,53.2159,138.8791,94.6568,265.4574,1.781e-05,-4e-08,0.0,0 STARLINK-4585,1 53567U 22101AS  23103.32473126 -.00000004  00000-0  17810-4 0  9995,2 53567  53.2159 138.8791 0001317  94.6568 265.4574 15.08837839 36217,6917.887,95.438,540.663,538.841,0.0
53567.0,STARLINK-4585,PAYLOAD,2023-04-13 18:55:18,15.08838843,0.0001392,53.2172,136.7984,105.1941,254.9205,7.527e-05,9.1e-06,0.0,0 STARLINK-4585,1 53567U 22101AS  23103.78840962  .00000910  00000-0  75270-4 0  9990,2 53567  53.2172 136.7984 0001392 105.1941 254.9205 15.08838843 36286,6917.884,95.438,540.712,538.786,0.0
53567.0,STARLINK-4585,PAYLOAD,2023-04-14 09:13:46,15.08838969,0.0001392,53.2172,134.1219,104.8671,255.2476,0.00012483,1.699e-05,0.0,0 STARLINK-4585,1 53567U 22101AS  23104.38457115  .00001699  00000-0  12483-3 0  9992,2 53567  53.2172 134.1219 0001392 104.8671 255.2476 15.08838969 36378,6917.884,95.438,540.712,538.786,0.0
53567.0,STARLINK-4585,PAYLOAD,2023-04-15 05:53:47,15.0884009,0.0001422,53.2167,130.2565,101.8097,258.3054,9.1318e-05,1.166e-05,0.0,0 STARLINK-4585,1 53567U 22101AS  23105.24569120  .00001166  00000-0  91318-4 0  9992,2 53567  53.2167 130.2565 0001422 101.8097 258.3054 15.08840090 36505,6917.88,95.438,540.729,538.761,0.0
53567.0,STARLINK-4585,PAYLOAD,2023-04-15 09:04:33,15.08841876,0.0001366,53.2164,129.6615,99.7793,260.3353,9.2608e-05,1.186e-05,0.0,0 STARLINK-4585,1 53567U 22101AS  23105.37817022  .00001186  00000-0  92608-4 0  9998,2 53567  53.2164 129.6615 0001366  99.7793 260.3353 15.08841876 36525,6917.875,95.437,540.685,538.795,0.0
53567.0,STARLINK-4585,PAYLOAD,2023-04-16 08:55:21,15.08842784,0.0001304,53.2169,125.2003,97.5117,262.6023,7.683e-05,9.35e-06,0.0,0 STARLINK-4585,1 53567U 22101AS  23106.37177252  .00000935  00000-0  76830-4 0  9993,2 53567  53.2169 125.2003 0001304  97.5117 262.6023 15.08842784 36675,6917.872,95.437,540.639,538.835,0.0
53567.0,STARLINK-4585,PAYLOAD,2023-04-16 18:27:40,15.08841141,0.00014,53.2175,123.4167,83.3102,276.8049,6.5564e-05,7.56e-06,0.0,0 STARLINK-4585,1 53567U 22101AS  23106.76921480  .00000756  00000-0  65564-4 0  9999,2 53567  53.2175 123.4167 0001400  83.3102 276.8049 15.08841141 36735,6917.877,95.437,540.71,538.773,0.0
53567.0,STARLINK-4585,PAYLOAD,2023-04-17 10:21:31,15.08842432,0.0001492,53.2176,120.4431,84.7403,275.3759,8.0981e-05,1.001e-05,0.0,0 STARLINK-4585,1 53567U 22101AS  23107.43161408  .00001001  00000-0  80981-4 0  9994,2 53567  53.2176 120.4431 0001492  84.7403 275.3759 15.08842432 36834,6917.873,95.437,540.77,538.706,0.0
53567.0,STARLINK-4585,PAYLOAD,2023-04-17 18:18:27,15.08840254,0.0001473,53.2175,118.9562,84.9907,275.1253,8.0133e-05,9.88e-06,0.0,0 STARLINK-4585,1 53567U 22101AS  23107.76281547  .00000988  00000-0  80133-4 0  9999,2 53567  53.2175 118.9562 0001473  84.9907 275.1253 15.08840254 36882,6917.88,95.438,540.764,538.726,0.0
53567.0,STARLINK-4585,PAYLOAD,2023-04-18 07:01:32,15.08842313,0.0001467,53.2172,116.5771,86.1574,273.9585,8.0473e-05,9.93e-06,0.0,0 STARLINK-4585,1 53567U 22101AS  23108.29273413  .00000993  00000-0  80473-4 0  9994,2 53567  53.2172 116.5771 0001467  86.1574 273.9585 15.08842313 36963,6917.873,95.437,540.753,538.723,0.0
53567.0,STARLINK-4585,PAYLOAD,2023-04-19 00:30:47,15.08837323,0.0001444,53.2164,113.3063,85.2514,274.8643,5.7447e-05,6.26e-06,0.0,0 STARLINK-4585,1 53567U 22101AS  23109.02137849  .00000626  00000-0  57447-4 0  9996,2 53567  53.2164 113.3063 0001444  85.2514 274.8643 15.08837323 37075,6917.889,95.438,540.753,538.755,0.0
53567.0,STARLINK-4585,PAYLOAD,2023-04-19 10:03:05,15.08839211,0.0001367,53.2167,111.5215,92.3426,267.7723,4.9316e-05,4.97e-06,0.0,0 STARLINK-4585,1 53567U 22101AS  23109.41881769  .00000497  00000-0  49316-4 0  9998,2 53567  53.2167 111.5215 0001367  92.3426 267.7723 15.08839211 37137,6917.883,95.438,540.693,538.802,0.0
53567.0,STARLINK-4585,PAYLOAD,2023-04-20 06:43:06,15.08832301,0.0001315,53.2169,107.6564,100.3991,259.715,0.00019221,2.772e-05,0.0,0 STARLINK-4585,1 53567U 22101AS  23110.27993943  .00002772  00000-0  19221-3 0  9991,2 53567  53.2169 107.6564 0001315 100.3991 259.7150 15.08832301 37264,6917.904,95.438,540.679,538.859,0.0
53567.0,STARLINK-4585,PAYLOAD,2023-04-20 16:15:25,15.08839522,0.00012,53.2165,105.8722,100.5802,259.5325,-1.0493e-05,-4.55e-06,0.0,0 STARLINK-4585,1 53567U 22101AS  23110.67737910 -.00000455  00000-0 -10493-4 0  9996,2 53567  53.2165 105.8722 0001200 100.5802 259.5325 15.08839522 37323,6917.882,95.438,540.577,538.917,0.0
53567.0,STARLINK-4585,PAYLOAD,2023-04-21 11:20:03,15.08833099,0.0001285,53.2172,102.305,95.5694,264.5444,5.6987e-06,-1.97e-06,0.0,0 STARLINK-4585,1 53567U 22101AS  23111.47226747 -.00000197  00000-0  56987-5 0  9997,2 53567  53.2172 102.3050 0001285  95.5694 264.5444 15.08833099 37446,6917.901,95.438,540.655,538.878,0.0
53567.0,STARLINK-4585,PAYLOAD,2023-04-21 16:06:13,15.0883516,0.000121,53.2167,101.4124,99.9862,260.1267,4.3587e-05,4.06e-06,0.0,0 STARLINK-4585,1 53567U 22101AS  23111.67098546  .00000406  00000-0  43587-4 0  9996,2 53567  53.2167 101.4124 0001210  99.9862 260.1267 15.08835160 37474,6917.895,95.438,540.597,538.923,0.0
53567.0,STARLINK-4585,PAYLOAD,2023-04-22 06:24:40,15.08846017,0.0001151,53.2169,98.7361,101.4084,258.7037,9.7399e-05,1.263e-05,0.0,0 STARLINK-4585,1 53567U 22101AS  23112.26713785  .00001263  00000-0  97399-4 0  9993,2 53567  53.2169  98.7361 0001151 101.4084 258.7037 15.08846017 37567,6917.862,95.437,540.523,538.931,0.0
53567.0,STARLINK-4585,PAYLOAD,2023-04-22 15:56:59,15.08840689,7.66e-05,53.217,96.953,108.0481,252.0595,9.4815e-05,1.222e-05,0.0,0 STARLINK-4585,1 53567U 22101AS  23112.66457956  .00001222  00000-0  94815-4 0  9997,2 53567  53.2170  96.9530 0000766 108.0481 252.0595 15.08840689 37624,6917.878,95.438,540.273,539.213,0.0
53567.0,STARLINK-4585,PAYLOAD,2023-04-23 07:50:51,15.08837572,0.0001266,53.2168,93.9778,89.8653,270.2484,7.3828e-05,8.87e-06,0.0,0 STARLINK-4585,1 53567U 22101AS  23113.32698715  .00000887  00000-0  73828-4 0  9998,2 53567  53.2168  93.9778 0001266  89.8653 270.2484 15.08837572 37722,6917.888,95.438,540.629,538.877,0.0
